{
  "norad_id": 55660,
  "name": "STARLINK-5467",
  "history": [
    {
      "epoch": "2026-03-28T19:36:09.976032Z",
      "apogee_km": 577.259922027336,
      "perigee_km": 570.614712270547,
      "latitude_deg": 4.708077527854552e-05,
      "longitude_deg": -4.195442853366368,
      "height_km": 577.808609479106,
      "semi_major_axis_km": 6952.074317148941,
      "eccentricity": 0.00047793,
      "inclination_deg": 69.9985,
      "raan_deg": 116.0779,
      "arg_perigee_deg": 115.9764,
      "mean_anomaly_deg": 244.1888,
      "mean_motion_rev_day": 14.97721806
    },
    {
      "epoch": "2026-03-31T18:05:16.260288Z",
      "apogee_km": 574.3994331087924,
      "perigee_km": 569.7108334956665,
      "latitude_deg": 3.226822813965835e-05,
      "longitude_deg": 8.225650701288158,
      "height_km": 574.5495681534286,
      "semi_major_axis_km": 6950.192133302229,
      "eccentricity": 0.0003373,
      "inclination_deg": 69.9984,
      "raan_deg": 108.6699,
      "arg_perigee_deg": 268.3689,
      "mean_anomaly_deg": 91.7084,
      "mean_motion_rev_day": 14.98330245
    },
    {
      "epoch": "2026-04-01T11:42:45.389376Z",
      "apogee_km": 574.4413061688165,
      "perigee_km": 569.6929267164624,
      "latitude_deg": 1.9288150403580763e-05,
      "longitude_deg": 101.27915265549254,
      "height_km": 574.4086197893863,
      "semi_major_axis_km": 6950.204116442639,
      "eccentricity": 0.0003416,
      "inclination_deg": 69.9984,
      "raan_deg": 106.8186,
      "arg_perigee_deg": 272.0811,
      "mean_anomaly_deg": 87.9957,
      "mean_motion_rev_day": 14.9832637
    },
    {
      "epoch": "2026-04-02T10:08:38.067648Z",
      "apogee_km": 574.4744438796533,
      "perigee_km": 569.631134623115,
      "latitude_deg": -3.9559492418930696e-05,
      "longitude_deg": 121.53231874092032,
      "height_km": 574.254830078765,
      "semi_major_axis_km": 6950.189789251383,
      "eccentricity": 0.00034843,
      "inclination_deg": 69.9982,
      "raan_deg": 104.4625,
      "arg_perigee_deg": 275.3479,
      "mean_anomaly_deg": 84.7282,
      "mean_motion_rev_day": 14.98331003
    },
    {
      "epoch": "2026-04-02T22:58:32.365056Z",
      "apogee_km": 575.685490372518,
      "perigee_km": 572.1524555270644,
      "latitude_deg": -3.227082643205896e-05,
      "longitude_deg": -72.8162986646535,
      "height_km": 578.0314254079113,
      "semi_major_axis_km": 6952.055972949791,
      "eccentricity": 0.0002541,
      "inclination_deg": 69.9982,
      "raan_deg": 103.1171,
      "arg_perigee_deg": 197.136,
      "mean_anomaly_deg": 162.9713,
      "mean_motion_rev_day": 14.97727734
    },
    {
      "epoch": "2026-04-04T20:00:01.999008Z",
      "apogee_km": 574.5359798471954,
      "perigee_km": 569.7694711534477,
      "latitude_deg": 36.94601725600455,
      "longitude_deg": -18.976392004793144,
      "height_km": 578.2396561799766,
      "semi_major_axis_km": 6950.289725500322,
      "eccentricity": 0.0003429,
      "inclination_deg": 69.9999,
      "raan_deg": 98.3819,
      "arg_perigee_deg": 267.8682,
      "mean_anomaly_deg": 131.7674,
      "mean_motion_rev_day": 14.98298687
    },
    {
      "epoch": "2026-04-05T00:00:02.000160Z",
      "apogee_km": 574.4088286253937,
      "perigee_km": 569.6764513085409,
      "latitude_deg": -35.89776445408552,
      "longitude_deg": 99.83103429439348,
      "height_km": 583.5122478042489,
      "semi_major_axis_km": 6950.179639966967,
      "eccentricity": 0.00034045,
      "inclination_deg": 70.0,
      "raan_deg": 97.9618,
      "arg_perigee_deg": 267.1204,
      "mean_anomaly_deg": 311.2383,
      "mean_motion_rev_day": 14.98334285
    },
    {
      "epoch": "2026-04-05T10:14:46.016736Z",
      "apogee_km": 575.8904595659851,
      "perigee_km": 569.5985216406907,
      "latitude_deg": 3.5796310652004897e-06,
      "longitude_deg": 109.4615793043019,
      "height_km": 574.1363823618134,
      "semi_major_axis_km": 6950.881490603338,
      "eccentricity": 0.0004526,
      "inclination_deg": 69.9984,
      "raan_deg": 96.886,
      "arg_perigee_deg": 289.2308,
      "mean_anomaly_deg": 70.8361,
      "mean_motion_rev_day": 14.98107354
    }
  ]
}